[{"OBJECT_NAME":"ISS OBJECT XU","OBJECT_ID":"1998-067XU","EPOCH":"2026-03-09T04:46:29.551296","MEAN_MOTION":15.69191892,"ECCENTRICITY":0.00048935,"INCLINATION":51.6248,"RA_OF_ASC_NODE":68.1144,"ARG_OF_PERICENTER":76.6698,"MEAN_ANOMALY":283.4844,"EPHEMERIS_TYPE":0,"CLASSIFICATION_TYPE":"U","NORAD_CAT_ID":66908,"ELEMENT_SET_NO":999,"REV_AT_EPOCH":1510,"BSTAR":0.0013351438,"MEAN_MOTION_DOT":0.00161175,"MEAN_MOTION_DDOT":0},{"OBJECT_NAME":"STARLINK-36994","OBJECT_ID":"2026-039M","EPOCH":"2026-03-09T22:00:01.999584","MEAN_MOTION":15.84295211,"ECCENTRICITY":0.00017133,"INCLINATION":42.9983,"RA_OF_ASC_NODE":53.4216,"ARG_OF_PERICENTER":254.5131,"MEAN_ANOMALY":53.6492,"EPHEMERIS_TYPE":0,"CLASSIFICATION_TYPE":"U","NORAD_CAT_ID":67997,"ELEMENT_SET_NO":999,"REV_AT_EPOCH":291,"BSTAR":-0.0076312815,"MEAN_MOTION_DOT":-0.0157165,"MEAN_MOTION_DDOT":0}]
